STARLINK-5019           
1 55407U 23014S   26068.42548265  .00001216  00000+0  10961-3 0  9998
2 55407  69.9993  65.2133 0003935 271.9946  88.0763 14.98345014172018
SHIYAN-24C 03           
1 58652U 23206C   26068.89147317  .00001350  00000+0  11928-3 0  9993
2 58652  97.3969  41.7507 0002411  66.6237 293.5240 14.97896938120432
